{
    "links": {
        "self": "http://www.neowsapp.com/rest/v1/neo/3154352?api_key=iIulBulltgU6a56xZRHN4H3l9WmuAYTsLGpBGhQ2"
    },
    "id": "3154352",
    "neo_reference_id": "3154352",
    "name": "(2003 JD11)",
    "designation": "2003 JD11",
    "nasa_jpl_url": "http://ssd.jpl.nasa.gov/sbdb.cgi?sstr=3154352",
    "absolute_magnitude_h": 24.3,
    "estimated_diameter": {
        "kilometers": {
            "estimated_diameter_min": 0.0366906138,
            "estimated_diameter_max": 0.0820427065
        },
        "meters": {
            "estimated_diameter_min": 36.6906137531,
            "estimated_diameter_max": 82.0427064882
        },
        "miles": {
            "estimated_diameter_min": 0.0227984834,
            "estimated_diameter_max": 0.0509789586
        },
        "feet": {
            "estimated_diameter_min": 120.3760332259,
            "estimated_diameter_max": 269.1689931548
        }
    },
    "is_potentially_hazardous_asteroid": false,
    "close_approach_data": [
        {
            "close_approach_date": "2003-05-10",
            "close_approach_date_full": "2003-May-10 07:17",
            "epoch_date_close_approach": 1052551020000,
            "relative_velocity": {
                "kilometers_per_second": "14.693836772",
                "kilometers_per_hour": "52897.8123791528",
                "miles_per_hour": "32868.6434752575"
            },
            "miss_distance": {
                "astronomical": "0.022926869",
                "lunar": "8.918552041",
                "kilometers": "3429810.76816903",
                "miles": "2131185.586951414"
            },
            "orbiting_body": "Earth"
        },
        {
            "close_approach_date": "2154-04-16",
            "close_approach_date_full": "2154-Apr-16 07:04",
            "epoch_date_close_approach": 5815609440000,
            "relative_velocity": {
                "kilometers_per_second": "28.0572765016",
                "kilometers_per_hour": "101006.1954058349",
                "miles_per_hour": "62761.3218064756"
            },
            "miss_distance": {
                "astronomical": "0.456262837",
                "lunar": "177.486243593",
                "kilometers": "68255948.57535719",
                "miles": "42412279.761181622"
            },
            "orbiting_body": "Earth"
        }
    ],
    "orbital_data": {
        "orbit_id": "12",
        "orbit_determination_date": "2017-04-06 09:14:07",
        "first_observation_date": "2003-05-05",
        "last_observation_date": "2003-05-11",
        "data_arc_in_days": 6,
        "observations_used": 101,
        "orbit_uncertainty": "8",
        "minimum_orbit_intersection": ".0218261",
        "jupiter_tisserand_invariant": "3.931",
        "epoch_osculation": "2452766.5",
        "eccentricity": ".5447184089180986",
        "semi_major_axis": "1.75334773877801",
        "inclination": "8.535351440453825",
        "ascending_node_longitude": "220.8334206643084",
        "orbital_period": "848.0091010985878",
        "perihelion_distance": ".7982669482307062",
        "perihelion_argument": "74.88529379977163",
        "aphelion_distance": "2.708428529325313",
        "perihelion_time": "2452815.963600083778",
        "mean_anomaly": "339.0015272158147",
        "mean_motion": ".4245237457164356",
        "equinox": "J2000",
        "orbit_class": {
            "orbit_class_type": "APO",
            "orbit_class_description": "Near-Earth asteroid orbits which cross the Earth’s orbit similar to that of 1862 Apollo",
            "orbit_class_range": "a (semi-major axis) > 1.0 AU; q (perihelion) < 1.017 AU"
        }
    },
    "is_sentry_object": false
}